{"type": "FeatureCollection", "name": "Cebu City Outer Mask", "crs": {"type": "name", "properties": {"name": "urn:ogc:def:crs:OGC:1.3:CRS84"}}, "features": [{"type": "Feature", "properties": {"name": "Outside Cebu City Mask"}, "geometry": {"type": "Polygon", "coordinates": [[[-180.0, 90.0], [180.0, 90.0], [180.0, -90.0], [-180.0, -90.0], [-180.0, 90.0]], [[123.8902792250002, 10.492567503000146], [123.88797746700016, 10.493494774], [123.88308496400009, 10.492284096000049], [123.86900688100013, 10.488801537000086], [123.86708097300027, 10.488325346000067], [123.85813219500005, 10.477735393000046], [123.85644142400008, 10.47573453900003], [123.85603436200017, 10.475317080000025], [123.85442472900013, 10.473550334000038], [123.84364823200008, 10.460679734000053], [123.84284214800016, 10.459717013000045], [123.838763416, 10.454846374000056], [123.83868710500019, 10.454754561000186], [123.83838579400003, 10.454823539000188], [123.83821808100015, 10.455131937000147], [123.83815330400034, 10.455300403000024], [123.83809794800004, 10.455379897000057], [123.8380307880002, 10.455388937000066], [123.83788896100009, 10.455407134000097], [123.83770183900003, 10.455311839999979], [123.83769206900013, 10.455306865000011], [123.837318804, 10.455081343000018], [123.83708503200023, 10.454789546000143], [123.83697303400004, 10.45454490700007], [123.83664045300031, 10.454234619000147], [123.83640246200025, 10.45403698500013], [123.83639786000003, 10.45403316300019], [123.8358729580001, 10.453597271000149], [123.8356171270002, 10.452775424000095], [123.83515663000003, 10.452121300000158], [123.83454263400006, 10.451852941000084], [123.83413330400026, 10.451282677000165], [123.83329758800005, 10.450477597000145], [123.83317820000013, 10.45019246400011], [123.83292236800025, 10.449873786000182], [123.8323595390001, 10.44925320100009], [123.8323595390001, 10.449219656000082], [123.83169432500017, 10.44877289700014], [123.83166026600009, 10.448750023], [123.83114860300009, 10.448666160000073], [123.8308245500001, 10.448632615000065], [123.83000588900006, 10.448666160000073], [123.82937483800004, 10.4484984340001], [123.82911900600016, 10.448196526000118], [123.82853912100006, 10.447055984000087], [123.82843678900008, 10.446871484000098], [123.82790807000015, 10.446552803000145], [123.82748168400008, 10.44660312100001], [123.82719770100005, 10.446469072000014], [123.82662891200005, 10.446200575000091], [123.82628780400023, 10.445798029], [123.82625369300013, 10.444909070999984], [123.82563969700016, 10.443953018000059], [123.8256226420001, 10.443919473], [123.82432642900005, 10.443097601000034], [123.82430937300023, 10.443080828000177], [123.82429231800029, 10.443080828000177], [123.82427526200013, 10.443080828000177], [123.82285966100017, 10.442829234000158], [123.82263794100015, 10.442980190000185], [123.8222456650002, 10.442946644000074], [123.82193866800003, 10.442695050000054], [123.82176811300008, 10.442409910000094], [123.82132467200006, 10.44173899100008], [123.82084712000017, 10.441420304000076], [123.81989201500028, 10.441101617000129], [123.81934624100006, 10.440749383000082], [123.81924151000021, 10.440381686000137], [123.81919274300014, 10.440212645000088], [123.81895396600021, 10.439776545000086], [123.81863630900011, 10.439795415000049], [123.81840606100025, 10.440177002000098], [123.81840179700009, 10.44064874500009], [123.81829329100003, 10.441003326000043], [123.81777714100008, 10.441235801], [123.81720791600014, 10.441139356000122], [123.81703949400003, 10.441082747000166], [123.81652783100014, 10.440891954000051], [123.81624641600001, 10.440797606000103], [123.81598632100008, 10.440564879000078], [123.81554287900019, 10.440229418000172], [123.81521882600009, 10.439893956000105], [123.81505893100007, 10.439732515000173], [123.81496299500009, 10.439627684000072], [123.8149288840001, 10.43930689800004], [123.81475832900003, 10.439172713], [123.81439668000007, 10.439442233000136], [123.81412514600004, 10.439495595000096], [123.81401215400001, 10.439514465000059], [123.8139396680001, 10.439491401999987], [123.81348983100008, 10.43935512000013], [123.81340029000023, 10.439315284000031], [123.81291634200034, 10.438981918000138], [123.81259015700005, 10.438763867000148], [123.8124387900001, 10.438602425999989], [123.81240467900022, 10.438602425999989], [123.81184185000006, 10.438283735000027], [123.81121079900004, 10.438048911000124], [123.81057974800012, 10.437629581000067], [123.8099145860001, 10.437260569999978], [123.80989753000017, 10.437243797000122], [123.80930059000013, 10.436908331999973], [123.80901064800014, 10.436891559000117], [123.80875481600026, 10.436807692000173], [123.80875481600026, 10.436790919000146], [123.80868659400016, 10.436371587000053], [123.80856720600002, 10.435935482000161], [123.80778265600009, 10.435415509], [123.80742449200011, 10.435348415000135], [123.80725393800003, 10.435180682], [123.80725393800003, 10.434912308000037], [123.8072368820001, 10.434492973999966], [123.80733921500007, 10.43412395900009], [123.80733921500007, 10.433889132000104], [123.80737332600017, 10.433671077000099], [123.80725393800003, 10.433469796000054], [123.80706632800002, 10.433234967999965], [123.80677638500026, 10.433067233000031], [123.80646938800021, 10.43293304500014], [123.80617944500011, 10.432631123000021], [123.80607711300013, 10.432413068000187], [123.80612827900006, 10.432228559000123], [123.80623061200015, 10.432044050000059], [123.80600889100003, 10.431893089000084], [123.80561661600018, 10.431725353000047], [123.8054460620001, 10.431658259000187], [123.80532667300008, 10.431339562000176], [123.80530961800014, 10.431104732000108], [123.80542900600005, 10.430702166], [123.80542900600005, 10.430651846000103], [123.80548017200022, 10.430366694000156], [123.80536078400007, 10.430014448000122], [123.80532667300008, 10.429997675000095], [123.80513906400006, 10.429829938000182], [123.80493439800023, 10.429863486000102], [123.80484912100019, 10.430047996000098], [123.80488323200007, 10.43041701500016], [123.80479795500003, 10.430769260999966], [123.80472973300004, 10.430903449000084], [123.80455917900031, 10.43093699600007], [123.80438862500023, 10.430635071999973], [123.80418395900017, 10.430266053000082], [123.80389401700018, 10.429494466000108], [123.80370640700005, 10.429142219000028], [123.80114304300014, 10.421028652000075], [123.79393806900009, 10.41044045100017], [123.78505352200011, 10.407699230000105], [123.77235411700019, 10.38995050200009], [123.76970678800012, 10.38625058700012], [123.77007639200008, 10.373240708000083], [123.77005225400023, 10.370084293000104], [123.77006135600016, 10.365147275000027], [123.77045034100001, 10.361988495000105], [123.77611373000013, 10.348857154000143], [123.77585622900006, 10.327592970000069], [123.77792813200017, 10.327767462999986], [123.77979950900021, 10.32797184900005], [123.78901216900022, 10.329773671999988], [123.79125824300002, 10.332464685000161], [123.79178422700011, 10.33516035100007], [123.79152620900004, 10.33823867200016], [123.79156903500007, 10.33807683200007], [123.79161265300024, 10.337990839000156], [123.79167477300007, 10.33796385700009], [123.79180218500017, 10.337987533000046], [123.79189962900023, 10.33803639600012], [123.79197350000004, 10.338073439000084], [123.79210993600009, 10.338115994000134], [123.79223157600006, 10.33809990800006], [123.79228191600009, 10.338093251000089], [123.792805197, 10.338138646000061], [123.79304578700021, 10.338112871000135], [123.79338149600017, 10.337980246000086], [123.79384695300007, 10.337437442000123], [123.79399032600008, 10.337305671000138], [123.79643780700019, 10.336217475000183], [123.79810739300012, 10.335502678000068], [123.79897112000003, 10.335829144000115], [123.79932025700009, 10.33598014100005], [123.79956312200022, 10.336368273], [123.79983037400007, 10.33661966800014], [123.80033448900019, 10.336600161000035], [123.80119089800007, 10.336467475000063], [123.80151006300014, 10.336613282000144], [123.80198237900026, 10.336783209000089], [123.80234850000011, 10.33664437900012], [123.80252291700003, 10.336493716], [123.80194939700004, 10.334974519000184], [123.80183131100023, 10.334498385000018], [123.8018943840002, 10.33391097700013], [123.8023130250001, 10.333177723000176], [123.8026828730001, 10.332683384000063], [123.80307556200023, 10.332551633000094], [123.8035040640001, 10.332588551000129], [123.80377732400018, 10.332870313000171], [123.80398436100018, 10.333256620000043], [123.80379003000019, 10.333583394000073], [123.80357592700011, 10.333883339000124], [123.8035314760001, 10.33418531500007], [123.80371805000004, 10.334499705000155], [123.80411181700003, 10.334714685000165], [123.80460535000009, 10.334699584000077], [123.80503209100004, 10.33462306600012], [123.80619824400014, 10.333448292000128], [123.80658013500022, 10.333397183000045], [123.80697286900022, 10.333366792000106], [123.80718342400007, 10.334013592000133], [123.80712641000002, 10.33521070800009], [123.80743491800013, 10.335529017000056], [123.80809716800002, 10.335468676000119], [123.80842934400016, 10.33520756900009], [123.80837409800006, 10.334574457000087], [123.80821753100031, 10.333920233000185], [123.80688903800012, 10.332745100000182], [123.80647733600017, 10.332222331000025], [123.80669772100032, 10.331799378000085], [123.8072191570003, 10.331524845000047], [123.80780546800008, 10.331323124000107], [123.8085576420001, 10.331294153000101], [123.80913155100006, 10.330882015000157], [123.8093956570001, 10.330548219000036], [123.80924385100013, 10.33018498600012], [123.80858883000008, 10.329689062000114], [123.80833451500007, 10.32914773400006], [123.8082515220002, 10.32837566000012], [123.80864228300015, 10.327710459000059], [123.80927209100003, 10.327288281000165], [123.80957555000032, 10.32741868700009], [123.80975495200005, 10.327656594000132], [123.80976613400014, 10.328198495000152], [123.80991811300032, 10.328581792000136], [123.81021514900021, 10.328888016000064], [123.8110292450001, 10.329213958000025], [123.81181952500026, 10.329259957000033], [123.81246326000019, 10.32890117800008], [123.81291269300016, 10.328365611000095], [123.81369663700002, 10.327502855000148], [123.81406308300006, 10.327510895000103], [123.8143783180002, 10.327673244000096], [123.81454003000022, 10.328769524000052], [123.81506672700004, 10.329348862000188], [123.8155100040002, 10.329542834999984], [123.81592383400016, 10.32936311700007], [123.8159664330002, 10.32902403800017], [123.81647217500029, 10.328072054000074], [123.81680791600013, 10.327814833], [123.81739440800015, 10.327365504000056], [123.81828689300016, 10.326562268000032], [123.81894881900007, 10.325885467999967], [123.81981899100015, 10.325171480000051], [123.82031729500011, 10.324516992000099], [123.82041398000001, 10.324182310000083], [123.82039910600008, 10.323855066000021], [123.8202131710002, 10.323579883000093], [123.82027267000024, 10.323438573000146], [123.82050322900022, 10.323349325000038], [123.8206371020002, 10.323304700000165], [123.82068916300011, 10.323126204000118], [123.82060735200002, 10.322888208000165], [123.82049579200009, 10.32270227400005], [123.82030242000008, 10.322412216000032], [123.82027267000024, 10.322114721], [123.82038423100016, 10.321854413000153], [123.82065941400026, 10.321460233000039], [123.82080816100006, 10.321244549000141], [123.82091228400009, 10.320954492], [123.82094947100006, 10.32067930900007], [123.82103128200015, 10.320448751000185], [123.8210610320001, 10.320054569999968], [123.8201933040001, 10.313845350000122], [123.82330103700008, 10.305257483000048], [123.82529932200009, 10.298974650000048], [123.82607596300022, 10.296547841000063], [123.8285765710001, 10.292980735000128], [123.83029578400021, 10.284597957000017], [123.83048280300011, 10.284587879000071], [123.83074956700011, 10.284573196000053], [123.83120386100006, 10.284548961000098], [123.83152550700004, 10.284531635000064], [123.83421822600019, 10.284386588000075], [123.83468705600012, 10.28434283100006], [123.83519339300017, 10.284274069000048], [123.83540593000009, 10.284199055999977], [123.83551219800017, 10.284005272000115], [123.83564972200031, 10.283792736000123], [123.83581850100018, 10.283580199000028], [123.83596227500016, 10.283405169000105], [123.83613105400002, 10.28304885800003], [123.8362373230002, 10.282617534000053], [123.83632483800022, 10.282204963000083], [123.83637484600013, 10.281898660000081], [123.8365811320001, 10.281798643000059], [123.83683117500016, 10.28183615000006], [123.83708746900004, 10.281898660000081], [123.83731250700032, 10.282098695], [123.83748753700002, 10.282273725000096], [123.83774383100013, 10.282242470000085], [123.83780009100019, 10.28195492000009], [123.83785635100003, 10.28164861800019], [123.83798137200017, 10.281429830000036], [123.83813139800009, 10.281248549], [123.8385127140001, 10.280973501000176], [123.83895654000003, 10.280810974000133], [123.83923783800003, 10.280754714000125], [123.83972542200001, 10.280679701000054], [123.84021925700017, 10.280529675000025], [123.84061307500008, 10.280423407000114], [123.84073184500005, 10.280485918000068], [123.84093813000004, 10.280654697000102], [123.84130069300011, 10.280860982000036], [123.84170701300013, 10.280848480000031], [123.84210708100022, 10.2806171900001], [123.84254465700019, 10.280167113000061], [123.8429384740001, 10.279760793000037], [123.84319476800022, 10.27933572000012], [123.84338230000014, 10.279079426000067], [123.84358233500006, 10.278948153000101], [123.84390114000007, 10.278773123], [123.84418243800008, 10.278641850999975], [123.8444762380002, 10.27839180799998], [123.84489506000023, 10.277697939000063], [123.84498197900007, 10.277573622000148], [123.845226367, 10.277229108000085], [123.84542015100021, 10.27687279700018], [123.84548266100023, 10.276741524000045], [123.84552641900018, 10.276397715000144], [123.84556392500008, 10.276210183000046], [123.84568269600004, 10.276197681000099], [123.84596399400004, 10.276128919000087], [123.84634531000029, 10.275991395000062], [123.84660160400006, 10.275722599000062], [123.8467516290001, 10.275235015000021], [123.8467766340001, 10.274916211000118], [123.84688290200006, 10.27449738900009], [123.84701417500014, 10.274328610000055], [123.84703560100013, 10.274288489000014], [123.84708349400012, 10.274198808000165], [123.84720222400017, 10.274175062000154], [123.84734945000002, 10.274156065999989], [123.84743968400005, 10.274108573999968], [123.84751092200008, 10.274046834000046], [123.8475584140001, 10.273913856000036], [123.84760115700021, 10.273809374000109], [123.84768189400006, 10.273795126000152], [123.84770851700023, 10.273577754000144], [123.84770851700023, 10.273192757000174], [123.84773116400004, 10.272920994000117], [123.84767454700022, 10.272660554000083], [123.84749337200003, 10.272569967000152], [123.84721028600006, 10.272513350000168], [123.84707440400007, 10.272411439000166], [123.84715366800003, 10.272117029000128], [123.8472669030001, 10.271777325000073], [123.84735749000004, 10.271596150000107], [123.84744807800007, 10.271403651000071], [123.84751601900007, 10.27116585900012], [123.84761793000007, 10.270758215000171], [123.84771984100007, 10.270361894000132], [123.84784439900011, 10.270146748000116], [123.84811616200011, 10.27001086700011], [123.848387924, 10.269908956000165], [123.84871630400005, 10.269863662000148], [123.84904468500008, 10.26981836800013], [123.84941835800021, 10.26973910400011], [123.84972409200009, 10.269523958999969], [123.8498136930001, 10.269440188999965], [123.84999585400021, 10.269297489999985], [123.85019967600022, 10.269048373999965], [123.85042614500003, 10.268889845000103], [123.8506073210001, 10.268776610999964], [123.85074320200022, 10.268731317000118], [123.85102628800018, 10.268652053000153], [123.85125275700022, 10.268550142000151], [123.85146790300007, 10.26842558400017], [123.85171701900003, 10.268267056000184], [123.8516167480002, 10.267185673000142], [123.85146585500001, 10.265432215000033], [123.85145056400029, 10.265266559000167], [123.85130545100014, 10.263619071000107], [123.85120392300007, 10.26346781400008], [123.85157842100011, 10.263135777000059], [123.85187593, 10.263010869000027], [123.851916834, 10.263008862000163], [123.85204879600008, 10.263068920000137], [123.85218226500001, 10.263170264000166], [123.85225113700005, 10.263198345000092], [123.85226523600022, 10.263204693000091], [123.85233567000012, 10.263208360000135], [123.85238968900012, 10.263208021000025], [123.85247764400003, 10.26318720900008], [123.852628449, 10.263108853000176], [123.85268794600017, 10.263105796000161], [123.85276505600018, 10.263129403999983], [123.85290271800022, 10.263155775000143], [123.85302480400003, 10.263139469], [123.85308906000012, 10.263123495000116], [123.85348000400018, 10.26309421100018], [123.85369340000022, 10.263083562000133], [123.85379350300025, 10.263084227999968], [123.85384017300021, 10.263098870000135], [123.853921, 10.263144793000095], [123.85396193100019, 10.263160899000013], [123.85403872600023, 10.263163485000064], [123.8542081820002, 10.263133830000186], [123.85421860400004, 10.263126158000091], [123.85428928600015, 10.263087556000073], [123.85440153900015, 10.263032168000109], [123.8544739360002, 10.262985726000181], [123.85452859000009, 10.2629426310001], [123.85456372400017, 10.262929653000072], [123.85461022500033, 10.262920835000045], [123.8546599990002, 10.262957400000175], [123.85473162900007, 10.263026563000096], [123.8548696150001, 10.263083895000022], [123.85502378800004, 10.263102373000152], [123.85512195500007, 10.263063404000036], [123.85527341000022, 10.263059270000042], [123.85536877900006, 10.263078238000048], [123.85545102200001, 10.263091694000082], [123.85572116800017, 10.263098358000093], [123.85598225600006, 10.263121386000023], [123.85597003700002, 10.263018594000073], [123.85596037900018, 10.262937554000132], [123.8559690840001, 10.262779292000175], [123.85600114500016, 10.262647726000125], [123.85616356900005, 10.262296451000111], [123.85627919300009, 10.262045468], [123.85635002300023, 10.261893187000112], [123.85676205100003, 10.26100207100012], [123.85685961800004, 10.260791060000145], [123.85698224400005, 10.260525844000028], [123.85702345100003, 10.260436495000022], [123.85703248400011, 10.26041718700003], [123.85715571300011, 10.260226470000134], [123.85717211400015, 10.260200225], [123.85721222300015, 10.260137943000188], [123.85725144600008, 10.260077069000147], [123.8573525700001, 10.259955522000098], [123.85748481700011, 10.259797463000098], [123.85759517500003, 10.2596646], [123.85807089200023, 10.259091874000035], [123.85827036800003, 10.258974289000037], [123.85852719500008, 10.258822897000073], [123.85930023300011, 10.260035835999986], [123.86001820700017, 10.261173427000074], [123.86308071300004, 10.26180625000012], [123.86644239700001, 10.262500894000027], [123.86656735700024, 10.262465191], [123.86668339200003, 10.262331304000043], [123.86673694700005, 10.262197418000142], [123.86687083400022, 10.262072457000045], [123.86721893900017, 10.26218849200012], [123.8675134890002, 10.262313453000047], [123.86770093000018, 10.26242948800018], [123.8679330010001, 10.262572300000102], [123.86813829300002, 10.26262585500018], [123.86828110600004, 10.262536597000064], [123.86833466000019, 10.262295601], [123.86842391800008, 10.262027828000157], [123.86851317600008, 10.26192964400019], [123.86870061700017, 10.261876090000044], [123.86905764800031, 10.262072457000045], [123.86995915100022, 10.261893940999983], [123.87034295900003, 10.26180468399997], [123.8706018060002, 10.261813609000114], [123.87090528300018, 10.26164402], [123.87121768500003, 10.2613316180001], [123.87183356300022, 10.260840700000188], [123.87205670700007, 10.260680036], [123.87227985200013, 10.260519372000033], [123.87231837000013, 10.260483422000107], [123.87238804200001, 10.260565138000118], [123.87324657000033, 10.259832846999984], [123.87326747400016, 10.259828276000064], [123.87419057800014, 10.259042101000091], [123.8749616660001, 10.258388478000143], [123.8749686340002, 10.258377050999968], [123.87498024600006, 10.258347341], [123.87498953600016, 10.25833591300011], [123.87501740700009, 10.258290204000161], [123.87502437400019, 10.258283349000067], [123.87502902000006, 10.258274206000067], [123.87505456800022, 10.258246781000025], [123.8750661810002, 10.258237641000164], [123.87509405100002, 10.258226214000047], [123.87511030900009, 10.25822849800005], [123.87514514700013, 10.258237641000164], [123.87515908300009, 10.258244496000088], [123.87516837300007, 10.258251353000048], [123.87517766300016, 10.258267351000143], [123.87518230800015, 10.25828106400013], [123.87518230800015, 10.258308488000068], [123.87517766300016, 10.258326771999975], [123.87516605000019, 10.25834277000007], [123.8751567600001, 10.258349625], [123.87514282400002, 10.258363337999981], [123.87505921200022, 10.258399903999987], [123.87504295400015, 10.25840447600001], [123.87501043900022, 10.258420474000104], [123.87454855700003, 10.258819918000142], [123.87454855700003, 10.258822203000022], [123.87453230000017, 10.258833630000026], [123.87452301000008, 10.258842771000161], [123.87450907300013, 10.258849628000064], [123.87445797700013, 10.258895336000137], [123.87443242900031, 10.258915906000084], [123.874418493, 10.258931904000121], [123.87437668700011, 10.25896846900008], [123.8743464930003, 10.259002751000082], [123.87430236500006, 10.259043888000178], [123.87426056000004, 10.25907817000018], [123.874232688, 10.259098736999988], [123.87421875300004, 10.259105594000118], [123.87418855900023, 10.259117021000122], [123.87417230100016, 10.259133018000114], [123.87380998200024, 10.259455260000095], [123.87340817900008, 10.259800353000173], [123.87341514600007, 10.259836298000039], [123.8737414970002, 10.26021126000012], [123.87396678400012, 10.26046037400016], [123.87413865200006, 10.260675204000165], [123.87507058200026, 10.2617665570001], [123.87537716000008, 10.262120798000012], [123.87581147800029, 10.262635016000104], [123.87626667200016, 10.263167434000138], [123.87662840500013, 10.263587484000084], [123.8771526910001, 10.264201451000133], [123.87758085000019, 10.264696138000147], [123.8776064320001, 10.264725694999981], [123.87844114500001, 10.265698066000084], [123.87906896700008, 10.266410150000183], [123.8799748570001, 10.26747170200008], [123.88109505500006, 10.268757957000048], [123.8815095550002, 10.269233901000177], [123.88152563200003, 10.26924774300005], [123.88155175600002, 10.269285311000147], [123.8816321380001, 10.26937626900002], [123.8816622810001, 10.26942372700006], [123.88167032000013, 10.269453386000123], [123.88167634900003, 10.269518638000022], [123.88167634900003, 10.269536435000134], [123.88167233000013, 10.269568072000027], [123.88166027300008, 10.269607619000169], [123.88163616000008, 10.26972626000014], [123.88162209200004, 10.26975915800017], [123.88144123500024, 10.270285133000073], [123.88142515900017, 10.27028118000004], [123.88141535400018, 10.270304249000048], [123.88141736400019, 10.270308204000116], [123.88142741200011, 10.27031809100015], [123.88143545000003, 10.270333910000147], [123.88143746100013, 10.270357637000075], [123.88142942200011, 10.270381365000048], [123.88142942200011, 10.270413002999987], [123.88155992800023, 10.27054992900014], [123.88159007100012, 10.270547950000093], [123.88162021500011, 10.270551905000161], [123.8816362900003, 10.270563769000034], [123.88165638600003, 10.270589475000065], [123.88166643400018, 10.270607270000028], [123.8816704530002, 10.270629021000104], [123.8816704530002, 10.27064879500017], [123.88166844300008, 10.270654727000135], [123.8816704530002, 10.270678455000109], [123.88181916100007, 10.270830711000087], [123.88183322800012, 10.270836643000052], [123.88184729500006, 10.270836643000052], [123.88186940000003, 10.270840597000017], [123.88189351400013, 10.270842574000142], [123.8819156200002, 10.270848505000174], [123.88193370700014, 10.270856415000083], [123.88195782000014, 10.270872232999977], [123.88199801300016, 10.270907825999984], [123.8820132400001, 10.27092676500007], [123.88202730800015, 10.270954448000111], [123.88203333600029, 10.270978176000142], [123.8820433840001, 10.27099399500014], [123.88204941300012, 10.271001905000048], [123.88207754700011, 10.271025631999976], [123.88208759500026, 10.271037496000076], [123.88212175800015, 10.271071111000083], [123.8821378340001, 10.271096816000181], [123.8821418550001, 10.271106704000147], [123.88215793000018, 10.271128455000053], [123.8821699880001, 10.271138341000153], [123.88217601600002, 10.271146250000186], [123.882200968, 10.271165840000037], [123.88224116000026, 10.271181659000035], [123.88230345600005, 10.271211320000077], [123.8823135050003, 10.271219228], [123.88232355100024, 10.271233069000175], [123.88233359900005, 10.271264707000114], [123.88234163800007, 10.27128250300018], [123.88234163800007, 10.271286458000077], [123.88235168600022, 10.271308208999983], [123.88236776200006, 10.271331938000117], [123.88238383900011, 10.27136159700018], [123.88239589600028, 10.271395212000186], [123.8824119730001, 10.27143278200009], [123.88242403100003, 10.27147628400013], [123.88243006000005, 10.27152176200019], [123.88243809800008, 10.271551423000062], [123.8824441280002, 10.271569219000128], [123.88245015700011, 10.271579106000104], [123.88246824200007, 10.271628540000108], [123.88247427100009, 10.271650291000071], [123.8824762810001, 10.271666109000137], [123.88247427100009, 10.2716858820001], [123.88246623300017, 10.271725429000071], [123.88245015700011, 10.271764977000146], [123.88243006200025, 10.271796615000085], [123.88237982300006, 10.271853957000019], [123.88236776600013, 10.271871753000084], [123.88235169000018, 10.271897459000115], [123.88234365100016, 10.271919210000021], [123.88233265500014, 10.271939014000054], [123.8823226080001, 10.271962742000085], [123.88230452200003, 10.272016131000157], [123.8822924650002, 10.27206161099997], [123.88227839800015, 10.272105113000066], [123.8822683510001, 10.272144660000038], [123.88226232200009, 10.272182230000112], [123.88226232200009, 10.272194094000042], [123.88226031300019, 10.27220595700004], [123.88226031300019, 10.272243528000047], [123.88225830300019, 10.272265278000077], [123.88226634200021, 10.272269233000145], [123.88230854300002, 10.272265278000077], [123.88233667700013, 10.27224945900008], [123.88236937400006, 10.272247399000094], [123.88239556300016, 10.272255120000125], [123.88239557300017, 10.27228088400011], [123.88239295600022, 10.272286038000175], [123.88238248300001, 10.27228604200019], [123.88237200700019, 10.272283470000161], [123.88236153100002, 10.272278321000158], [123.88234843800012, 10.272278327000151], [123.88229346100002, 10.272304112000086], [123.88228560700009, 10.272311845000104], [123.8822751350001, 10.27231700200008], [123.88226466200013, 10.272319583000012], [123.88225157200009, 10.272327317000133], [123.88224371800015, 10.272329898000066], [123.88223848500013, 10.272340206000024], [123.88223063200007, 10.272347939000042], [123.88223063700002, 10.272360821000063], [123.88223326000013, 10.27237112600011], [123.88224373800017, 10.272381429000177], [123.88225159400008, 10.272381425000162], [123.88225227600014, 10.27239776], [123.88224415700006, 10.272409681], [123.88224616700006, 10.272417590000032], [123.88224013800004, 10.27242945300003], [123.8822260720001, 10.272447249000095], [123.8821939180001, 10.272472955000126], [123.88217583200003, 10.272490752000067], [123.88215975600008, 10.272498662000032], [123.88213162200009, 10.272516457000165], [123.88209545000007, 10.272552051000048], [123.8820713350002, 10.272587642000076], [123.88205324900025, 10.272609393000039], [123.8820452110001, 10.27262521199998], [123.88203717400006, 10.27266871400002], [123.88203114500004, 10.272678602000155], [123.88202109700012, 10.27268255600012], [123.88198090500009, 10.27268057800012], [123.8819567910001, 10.272686510000085], [123.88192463800021, 10.27270628400015], [123.88191258100017, 10.272710240000094], [123.88190454200014, 10.27271617200006], [123.88188444700017, 10.272724081000092], [123.88186837, 10.272722104000025], [123.88185631400006, 10.272718149000127], [123.88183621700011, 10.272718149000127], [123.88180406400033, 10.272730013000057], [123.88179200800005, 10.272735945000022], [123.88174980600013, 10.27273990000009], [123.88171966200014, 10.27273990000009], [123.88169956700017, 10.272743855000158], [123.88168750900002, 10.272743855000158], [123.88165133700022, 10.272735947], [123.88160913600007, 10.272731992000104], [123.88157899300006, 10.272724082000025], [123.881536793, 10.272716173000163], [123.88152272500008, 10.272710241000027], [123.88150263000011, 10.27269442200003], [123.88145385700022, 10.272694669000145], [123.88142572400011, 10.272706534000179], [123.88138151300006, 10.272744104000083], [123.88136543700023, 10.272755968000183], [123.88133931200025, 10.272779695000054], [123.88127701500002, 10.272850880000021], [123.88123481500008, 10.272902293000072], [123.88117653800009, 10.272961613], [123.881120269, 10.273022911000112], [123.8810780680003, 10.27306245800014], [123.88106400100014, 10.273078275999978], [123.88103385800002, 10.273103983000112], [123.88099165700021, 10.273143529000151], [123.88097759000016, 10.273159349000025], [123.88097156200001, 10.273175168000023], [123.88097156200001, 10.273183076000123], [123.88096754300011, 10.273196918000053], [123.88096151400009, 10.273206805000086], [123.88095347600017, 10.273214714000119], [123.88094342800002, 10.273216691000187], [123.88092132300005, 10.27323053300006], [123.88090524600022, 10.27323053300006], [123.880877112, 10.273220646000084], [123.88086304500018, 10.273212738000097], [123.88082486400015, 10.273169236000058], [123.88080476800008, 10.27316132600015], [123.88076055700003, 10.273147485000152], [123.88070027100002, 10.273151439000117], [123.88067012800013, 10.273151439000117], [123.88065204100019, 10.273149462000049], [123.88057567800013, 10.273151439000117], [123.8805636200002, 10.273153417000117], [123.88055357200005, 10.273157372000128], [123.88052945800007, 10.27316132600015], [123.88051740000014, 10.273167258000058], [123.88050333300009, 10.273169237000161], [123.8804772090001, 10.27317714500009], [123.88046515200006, 10.27317912300009], [123.88043500800006, 10.27318900900002], [123.88039481700002, 10.273204828000189], [123.88037673100007, 10.27320878300003], [123.88036266400013, 10.27320878300003], [123.88029026700008, 10.273153103000084], [123.87972711600025, 10.273789826000097], [123.87996657100007, 10.27442650900008], [123.88020180600006, 10.275105579000126], [123.88032615100019, 10.27543011299997], [123.88082485500001, 10.276836292000098], [123.88107588900004, 10.27753420900018], [123.88132626200002, 10.278198933000112], [123.88151782500006, 10.278689090000057], [123.88168956600009, 10.279110921999973], [123.88192698900014, 10.279573870000092], [123.88207226100008, 10.279810813999973], [123.88226186200006, 10.280114716000071], [123.8823301020002, 10.280209060000061], [123.88247314700004, 10.280406826000103], [123.88284494700008, 10.280868909000048], [123.88319484700003, 10.28124537500014], [123.883286827, 10.281351186000052], [123.88410460800026, 10.28221979000017], [123.88498250700002, 10.283141766000085], [123.88755898200009, 10.285861896000085], [123.88750979900021, 10.286221341000044], [123.8872919910001, 10.287564111000165], [123.88726388900011, 10.287598672000058], [123.88724047100015, 10.287621713000135], [123.88723110300009, 10.287628624999968], [123.8872070450002, 10.287653218000173], [123.88720139300005, 10.28766434], [123.88717501700023, 10.28769770800011], [123.88710154000012, 10.287760731000049], [123.88707704800004, 10.28777741500005], [123.8870356000001, 10.287801511000055], [123.88702618100001, 10.287805219], [123.88697908000006, 10.28783117100005], [123.88690937200033, 10.287855266000179], [123.88684154900011, 10.287884924000139], [123.88683212900003, 10.287890486000038], [123.88678126100012, 10.287905314000056], [123.8867454660001, 10.287912728000151], [123.88672097400001, 10.287921996000023], [123.88670967000019, 10.28792384999997], [123.88665315100002, 10.287942385000179], [123.88657025500004, 10.287972043000138], [123.88655706700001, 10.287975749999987], [123.8865514150001, 10.287975749999987], [123.88651979000008, 10.287985019000132], [123.88651413800017, 10.287990578000176], [123.88650095000014, 10.288018384000168], [123.88648587700004, 10.288044335000109], [123.8864595020001, 10.288079554999968], [123.88641616900009, 10.288122189000148], [123.88637472200014, 10.288146284999982], [123.88636530100018, 10.28815370000018], [123.88634457700005, 10.288164821000123], [123.8863332740001, 10.288168530000178], [123.88631254900008, 10.28817965100012], [123.88628240600019, 10.28819077300011], [123.88625226200031, 10.288200040000106], [123.88623342200003, 10.288203747000125], [123.88620139500028, 10.288203746000022], [123.88619197500009, 10.28820560100013], [123.88616428400019, 10.28820477100004], [123.88584103300013, 10.288403453000114], [123.88504669100018, 10.288906246000067], [123.88540903000023, 10.28930643700005], [123.88546045500004, 10.289363234000064], [123.88678744700007, 10.290166631000034], [123.88685290500018, 10.289246030000129], [123.8875027490003, 10.289249475000133], [123.88820669600022, 10.289263408000124], [123.88819496700023, 10.28820210200007], [123.88818897600015, 10.288182456000072], [123.88818698000034, 10.288156912999966], [123.88821853700006, 10.288159515000018], [123.8882225320001, 10.288171304], [123.88822652500016, 10.28817523300006], [123.88827644600008, 10.288155588000166], [123.88830639900004, 10.28813790400011], [123.88832037700013, 10.28813201000014], [123.88833834900004, 10.28813201000014], [123.88835831800031, 10.288135940000132], [123.8883663050002, 10.288143799000125], [123.8883663050002, 10.288151659000107], [123.88835831800031, 10.2881595180001], [123.88836231100004, 10.288173270000186], [123.88969022200001, 10.288167391000172], [123.88982751700007, 10.287512366000044], [123.89007114100002, 10.286414072000127], [123.89031875700005, 10.285268482], [123.89031676000002, 10.285249647000114], [123.89031276700007, 10.285241789], [123.89030877300013, 10.285206424000023], [123.89031676100012, 10.285182846000055], [123.89031875800003, 10.285173022000095], [123.89031875800003, 10.28516123500009], [123.89032275300008, 10.285151411000186], [123.89032474800013, 10.28513765700012], [123.89033273600012, 10.285114081000131], [123.89033872700008, 10.285104256000125], [123.8903467140002, 10.285053173000051], [123.8903467140002, 10.28503156100004], [123.89034871100012, 10.285019772000055], [123.89035270500005, 10.285011913000176], [123.8903626890002, 10.285007983000014], [123.8903706760002, 10.285011913000176], [123.89038066100022, 10.285021737000136], [123.89039264200005, 10.285039420999965], [123.8904026260002, 10.285047280000185], [123.8904106140003, 10.28505120800014], [123.89042059700012, 10.28505120800014], [123.89043257800017, 10.285062997000125], [123.89045054900032, 10.28508461000007], [123.89045454300015, 10.285094433000097], [123.8904984730002, 10.285139622000031], [123.89050446300018, 10.285149446000105], [123.89051644400001, 10.28516320000017], [123.89051844100004, 10.285173023000027], [123.8905144480002, 10.285182847000101], [123.89051245000007, 10.285196601], [123.89051844100004, 10.285214283000073], [123.89053641300018, 10.285231966000026], [123.8905543850002, 10.285253578000038], [123.89056636400005, 10.285279121000087], [123.89056836100008, 10.285300732], [123.89056436700014, 10.285316450000096], [123.89056436700014, 10.285324310000021], [123.89056237100033, 10.285332169000014], [123.89055638000013, 10.285340027000132], [123.89054639600022, 10.2853459210001], [123.89052443100002, 10.285341991000166], [123.89049048400034, 10.28533020400016], [123.8904585350001, 10.285324309000089], [123.8904345730001, 10.285314485000185], [123.89042259300015, 10.285314485000185], [123.89041061100022, 10.28531841500012], [123.89039463600022, 10.285332167000035], [123.89039319100004, 10.285351272000128], [123.89017552900009, 10.286320972000055], [123.88991762600006, 10.287498155000037], [123.88992262300019, 10.287529763000123], [123.88995675800004, 10.287535313000092], [123.88981812900022, 10.288181778000023], [123.89031133100002, 10.288229055000102], [123.89039674400021, 10.287850913000057], [123.89038251000011, 10.287850728000137], [123.8903860690001, 10.287831470000128], [123.89039852400003, 10.287831471000061], [123.89042877400004, 10.28769841999997], [123.89041631900011, 10.287696669000127], [123.89042165800015, 10.28767391200006], [123.89043589200026, 10.28767566300013], [123.89046436300009, 10.287546114000179], [123.89044834900017, 10.287544363000109], [123.8904501290001, 10.287528606000137], [123.89046436300009, 10.287530357000037], [123.89047148100008, 10.287519853000049], [123.89057823600001, 10.287544364000041], [123.89058357400006, 10.287551367000162], [123.89059603000021, 10.287556511000048], [123.89059069100006, 10.287574018000157], [123.89057645800017, 10.287572267000087], [123.89055154500011, 10.287700066000127], [123.89056577800022, 10.287705318], [123.89056044000006, 10.287724574000038], [123.89054620600018, 10.287722823000138], [123.89051595700005, 10.287857625000072], [123.89053019000005, 10.28786112600011], [123.89052663200016, 10.287885636], [123.89050825200002, 10.28788264900004], [123.89042861400003, 10.28823650600009], [123.89064627300002, 10.288249570000119], [123.89063299000009, 10.28878612699998], [123.8906356440001, 10.288804408000033], [123.89063564300022, 10.288864477000118], [123.8906303340002, 10.288885371000049], [123.89062237200005, 10.288890595000112], [123.89060909900013, 10.288895817000025], [123.89059317200031, 10.288911488000167], [123.89056744200013, 10.289852518000032], [123.89057097000011, 10.289854253000101], [123.89058331800004, 10.289854253000101], [123.89060624900003, 10.289857726000093], [123.89063270700012, 10.289873345000103], [123.89064505300007, 10.289876816000117], [123.8906644560002, 10.289876817], [123.89067503900003, 10.28988028900011], [123.89068385800022, 10.289887230999966], [123.89069620500004, 10.289892438000152], [123.89071031600008, 10.289895908000062], [123.89073148400007, 10.289899380000179], [123.89078087300015, 10.289902853000058], [123.89080733000026, 10.289908060000187], [123.89089552400014, 10.289930623000032], [123.89096608000011, 10.28994277300012], [123.89099253800009, 10.289942774000053], [123.89105251100023, 10.289930626000114], [123.89107191400012, 10.289923684000087], [123.89109131700002, 10.2899097990001], [123.89113365100002, 10.289885504000097], [123.89115305400014, 10.289880298000014], [123.891179512, 10.289878563000173], [123.89119978000008, 10.289865768000084], [123.89119123300031, 10.289383814000189], [123.89173434000008, 10.289382544000034], [123.89244398500023, 10.289380885000185], [123.89244979100022, 10.289404036000064], [123.89246048600012, 10.289399827000182], [123.89251182300018, 10.289364049000028], [123.89255674200024, 10.289328271000102], [123.89256743700014, 10.289321957000084], [123.89262519100009, 10.289271449000182], [123.89263802500011, 10.289256717000058], [123.89265513700013, 10.289244088000146], [123.89267224900016, 10.28922725199999], [123.89270861300008, 10.289197789000127], [123.8927257250001, 10.289180952000095], [123.89276636600005, 10.289153592000105], [123.89277492200017, 10.289145174000112], [123.89281128600021, 10.289124129000072], [123.89284551000014, 10.289109396000185], [123.89288401200031, 10.28908624700017], [123.89293107000015, 10.28906309600012], [123.89294176500005, 10.289056782000102], [123.89297171200008, 10.289031527000077], [123.8929845460001, 10.289025214000162], [123.89299951900023, 10.28901469100009], [123.89305044800005, 10.288997854], [123.89306970000007, 10.288987332000033], [123.89308681300031, 10.288974705000157], [123.89313387000004, 10.288947345], [123.89314028700016, 10.288941031000036], [123.89319590200023, 10.288909463000095], [123.89321729200003, 10.288903149000078], [123.89323654300006, 10.288894732000188], [123.8932729070001, 10.288888418000056], [123.8933499100001, 10.288888418000056], [123.89339269000016, 10.288892628000042], [123.8934140800003, 10.288898942], [123.8934290530002, 10.288901047000081], [123.89350178000007, 10.288917885000046], [123.89352958700022, 10.288930513000025], [123.89360231100011, 10.2889515600001], [123.89363653500016, 10.288972607000176], [123.8936622030003, 10.288978921000137], [123.89371995600004, 10.288999967000109], [123.89378840300014, 10.289035745000035], [123.89379695900027, 10.289044164000131], [123.89381193200018, 10.289052582000124], [123.8938333220002, 10.289071525000168], [123.89386326800002, 10.289105198000016], [123.89388251800017, 10.289134663000084], [123.89388679600017, 10.289145186000155], [123.89389749100008, 10.289159917], [123.89390818600032, 10.289178860000106], [123.89394454800015, 10.289258835000055], [123.89395310400016, 10.28928409000008], [123.89396166000017, 10.28930092700017], [123.89396593900005, 10.289313555000149], [123.89397235500007, 10.289324078], [123.89398091100009, 10.289347228000167], [123.89399484400008, 10.289377704], [123.89399669400018, 10.289381751000064], [123.89401808400021, 10.289396485000054], [123.89403091800023, 10.289409111000055], [123.89404803000002, 10.289430157000027], [123.89405658700025, 10.289434367000183], [123.89406514200016, 10.289442786000052], [123.8940908100002, 10.289459623000141], [123.8941057830001, 10.289472250000188], [123.89413358900003, 10.289480669999989], [123.89419134200011, 10.289510133000022], [123.89421701000015, 10.28951855300005], [123.89425765200008, 10.289524867000011], [123.89431112600005, 10.289524868000115], [123.89433037700019, 10.289526971000043], [123.89434748900021, 10.289531182000076], [123.89438385300002, 10.289531182000076], [123.89439882500017, 10.28952697200009], [123.89445444000023, 10.289520659], [123.89448866400005, 10.289518554000097], [123.89450149800007, 10.289514346000146], [123.8945207490001, 10.289512240000136], [123.89454427800001, 10.289518554000097], [123.89455925100015, 10.28951855500003], [123.89460844800021, 10.289512241000068], [123.89462769900013, 10.289505928000153], [123.89466620100006, 10.289501718000167], [123.89468973000032, 10.289491195999972], [123.89470470300023, 10.289489092000167], [123.89471325900001, 10.289484883000114], [123.89473464900004, 10.289478569000096], [123.89476887300009, 10.289474360000042], [123.89480737500003, 10.289455418000045], [123.89481807000016, 10.289455418000045], [123.8948458770002, 10.289459628000031], [123.89487796300023, 10.289455419000149], [123.89488224200011, 10.289444896000077], [123.89488224200011, 10.289425955000183], [123.89487796300023, 10.289409118000151], [123.89488224200011, 10.28939438600014], [123.89489293600013, 10.289388072000179], [123.89491004900003, 10.289388072000179], [123.89493571600008, 10.289381758000161], [123.89496397800008, 10.289383119000036], [123.89497628800007, 10.289380598000093], [123.89499615800014, 10.289383531000055], [123.89500460300019, 10.289387931000078], [123.89501255200003, 10.28940015000012], [123.8950185120002, 10.289406014000065], [123.89502447300003, 10.28941041400003], [123.89503242100022, 10.289412369000104], [123.89505427900008, 10.289410903000032], [123.89507315600008, 10.28940650300018], [123.89508309100006, 10.289407970000013], [123.89510047800002, 10.289405037000051], [123.895114884, 10.289406016000044], [123.89512879300003, 10.289403572000026], [123.89513832800014, 10.289406715000041], [123.89515218500014, 10.289402170000074], [123.89518913800009, 10.289395354000078], [123.89520068600018, 10.289390810000043], [123.89523532900012, 10.289390811000146], [123.8952722810003, 10.289393085000142], [123.89530692500011, 10.28938626900009], [123.89538143700008, 10.289368281], [123.89541608100012, 10.289356920000046], [123.89544148600021, 10.289352377000114], [123.89548767700023, 10.289352378000046], [123.89551077300018, 10.289345562], [123.89553617800004, 10.289341017000083], [123.89562394000018, 10.289341019000062], [123.89564703600013, 10.289345565000133], [123.89568860700012, 10.289350111000147], [123.89571401200021, 10.289350112000022], [123.89573941700007, 10.289352386000076], [123.895801774, 10.289352388000054], [123.89585951300023, 10.289345572], [123.89591956100003, 10.289347847000101], [123.89594034700019, 10.289345574000038], [123.89597499000013, 10.289338758000156], [123.89600039500033, 10.28933194200016], [123.89601194200009, 10.28933194200016], [123.8960419660001, 10.289343305000102], [123.89608815700012, 10.289347851000116], [123.89611587100012, 10.289347852000049], [123.89612741900021, 10.289345581000134], [123.89614820600002, 10.28933194700005], [123.89617822900016, 10.289320586000088], [123.89624289700032, 10.289302409000072], [123.89626599200005, 10.289300138000158], [123.89631911100003, 10.28930013900009], [123.89633758700018, 10.289304685000104], [123.8963560630001, 10.28931604700017], [123.89636299200004, 10.289325136000116], [123.89636761000008, 10.28933422700004], [123.8963699200001, 10.28934331500011], [123.89637684800016, 10.289345589000106], [123.89639412000031, 10.289343700000018], [123.8963976340001, 10.289343315999986], [123.89641611000002, 10.289345590000039], [123.8964230390003, 10.289343318000022], [123.8964276580001, 10.289331956000126], [123.89644844800023, 10.289197886000068], [123.8964461400002, 10.289141075999964], [123.89644845000021, 10.289129714000126], [123.89644845100008, 10.28910698900006], [123.89644383300003, 10.289066087000094], [123.89644152400001, 10.28905927000011], [123.89644033900015, 10.28903364100006], [123.89645623000013, 10.289026941000031], [123.89646531100004, 10.289004603000137], [123.89643752600034, 10.288752491000082], [123.89642617500022, 10.288745790000121], [123.89640801700011, 10.288638574000117], [123.89641936900023, 10.288605070000017], [123.89699371200004, 10.28865199400019], [123.89700052200021, 10.288672096000084], [123.8970118740001, 10.28864752700008], [123.89704365500018, 10.288663163000138], [123.89702294000028, 10.288700161000179], [123.89743837300011, 10.28894587700006], [123.897467806, 10.288901203000137], [123.8974995870002, 10.288919074000091], [123.89747234400022, 10.288970447000167], [123.89813522300005, 10.289356889000146], [123.89814657400018, 10.289370291000012], [123.89811854900006, 10.289518345000033], [123.89813217000005, 10.289529513000048], [123.89810946500006, 10.289650131000087], [123.89822634100017, 10.28969916300008], [123.89828085600027, 10.289447583000026], [123.89859032400011, 10.289615052000102], [123.89853016500001, 10.28984081800013], [123.89854488700018, 10.2898480610001], [123.89855715500016, 10.289835991000189], [123.89857187800021, 10.28981184900016], [123.89859886900001, 10.28979977900002], [123.89861849800002, 10.289802193000071], [123.89868229400008, 10.289852893000159], [123.89870437600018, 10.289877037000053], [123.89872400500008, 10.28990842100012], [123.89874854200025, 10.289881865000098], [123.89876326500018, 10.289874624000106], [123.89876571800005, 10.28988428100007], [123.89877553300005, 10.289896351000039], [123.89878780100003, 10.289903595000112], [123.89879025400012, 10.289910838000083], [123.89877307800032, 10.28994222199998], [123.89876326300009, 10.289954294000097], [123.89878289100034, 10.289990508000074], [123.89880006700002, 10.290002578000042], [123.89883441800009, 10.290050865000012], [123.89885895500004, 10.290075006000166], [123.89887122200014, 10.29009673600018], [123.89888839800005, 10.290120877000106], [123.89891048000015, 10.290147436000098], [123.89893010900005, 10.290166750000083], [123.8989472840002, 10.290193307000095], [123.8989742760001, 10.290210207000086], [123.89897427400012, 10.29021262100008], [123.89900918800015, 10.290244007000183], [123.89902534800024, 10.290217451000103], [123.89904988600017, 10.290186065], [123.89923109500012, 10.289975348999974], [123.89924538400032, 10.289963299000078], [123.89925559000028, 10.289951250000058], [123.89926375400012, 10.289945224000064], [123.89928416600003, 10.289925141000083], [123.899312742, 10.289907068000105], [123.89932703000011, 10.289901043000043], [123.89936785300006, 10.289893010000185], [123.89941479900006, 10.289893012], [123.89943521000009, 10.289895020000188], [123.8994841970001, 10.289907071000016], [123.89950664900005, 10.289915105000148], [123.89956380000001, 10.28994322200009], [123.89958217100002, 10.28994924900013], [123.89961891100006, 10.289965315000074], [123.89963319800006, 10.289969332000112], [123.8996658560003, 10.289985400000035], [123.89968014400006, 10.289989416000026], [123.89972913100007, 10.290017533000082], [123.89975974700019, 10.290029583000035], [123.89977403500006, 10.290033601], [123.89978424000014, 10.290035609000029], [123.899798529, 10.290035610000075], [123.89981689800004, 10.290029584000138], [123.89984343300011, 10.290009502000089], [123.8998556800002, 10.28999544400017], [123.89988221600004, 10.289959295000074], [123.8999393700002, 10.289895031000071], [123.899974068, 10.289864908000027], [123.9000210150001, 10.289838800000155], [123.90006044700021, 10.289788594000072], [123.90006861200004, 10.289786586000105], [123.90013597000029, 10.289752446000136], [123.90016046400001, 10.28974441300005], [123.90017679300001, 10.28973637900009], [123.90019312200002, 10.28973236400003], [123.90022373900001, 10.289728347000164], [123.90024006800002, 10.289728347000164], [123.90025843800015, 10.289724332000105], [123.90027272600003, 10.289724332999981], [123.90033804300003, 10.289718308000147], [123.90040131800004, 10.289718309000023], [123.90043193500003, 10.289724335000187], [123.90044826400003, 10.289724335000187], [123.90046663400017, 10.289730361000125], [123.90048092200004, 10.289732369000149], [123.90050949700003, 10.289740403999986], [123.90055440200013, 10.289760486000091], [123.90058093600021, 10.289776554000127], [123.90063604600027, 10.289804672000173], [123.90066258000002, 10.289822746000084], [123.90067278600009, 10.28983278700008], [123.90068299100017, 10.289838813000074], [123.90069523800003, 10.289848855000173], [123.90072993700016, 10.289887013000168], [123.9007483060002, 10.289917137000145], [123.90075238800011, 10.289921155000116], [123.9007646340001, 10.289947262000055], [123.90078300400023, 10.28996734600014], [123.90080749700019, 10.28999947800014], [123.90081362, 10.29001152900014], [123.90083403100004, 10.290041653000173], [123.90085240000008, 10.290083829000082], [123.90087485200002, 10.29012198700002], [123.90088914000012, 10.290138052000032], [123.90093812600003, 10.290200311000149], [123.90098915400006, 10.290258552000068], [123.90101772800006, 10.290284660999987], [123.90102793400001, 10.29029671100011], [123.90104018000011, 10.290306753000038], [123.90107487900013, 10.290328844000044], [123.90109324900004, 10.290338886000143], [123.90110549600001, 10.290342904000113], [123.90114631800009, 10.290367004000132], [123.90120347000015, 10.290387087000113], [123.9012585810002, 10.290409179], [123.90127082800007, 10.290411188000064], [123.9013051090003, 10.290423747000148], [123.90143166000007, 10.290473956000142], [123.90146227600007, 10.29048399800007], [123.90149085100006, 10.290498057000093], [123.9014954910001, 10.290499883000052], [123.90152146900004, 10.290510106999989], [123.90158678500018, 10.29053420800011], [123.90165210000032, 10.290554293000127], [123.90174599200009, 10.290590443000099], [123.90179701900001, 10.29061253500015], [123.90189907500007, 10.290646677000097], [123.90192356900013, 10.29065872700005], [123.90195010300022, 10.290668768999979], [123.90201541900012, 10.290686845000039], [123.90204195400008, 10.29069086100003], [123.90207053000017, 10.290698896000094], [123.90209502300013, 10.290702912000086], [123.90212768100002, 10.290710947000093], [123.90216033900003, 10.290716971000052], [123.90220524400013, 10.290720988000146], [123.90225014900034, 10.290729022000107], [123.90231750600014, 10.290745089000097], [123.90234404200021, 10.290755131000026], [123.90238078200002, 10.29076316600009], [123.90241675000004, 10.290778166000052], [123.90249431300015, 10.290800259000036], [123.90263311000001, 10.29083641000011], [123.90271475700001, 10.290860511000062], [123.9029127450001, 10.290904696000041], [123.90295765000019, 10.290916747000097], [123.90302092500019, 10.290940847000115], [123.90306378900016, 10.290950889000044], [123.90308828200011, 10.29096093100003], [123.90313318700021, 10.290968965000161], [123.90321075100007, 10.290993066000112], [123.90324544900011, 10.2910071230001], [123.90326382000012, 10.291017166000131], [123.90333934100022, 10.291061349000131], [123.90335771200023, 10.29107540700005], [123.90337404100012, 10.29108544899998], [123.90339241000004, 10.291093481000132], [123.90343731500002, 10.291123607000145], [123.90349038400007, 10.291167790000145], [123.90352508300009, 10.291187872000023], [123.90354141200032, 10.291203940000116], [123.90356386400003, 10.291217998000036], [123.90357611100012, 10.291228039999964], [123.90359448100003, 10.291246114000046], [123.90361897500009, 10.291280255000117], [123.90362509800002, 10.291296322000107], [123.90363530300021, 10.291314396000018], [123.90364790900003, 10.291327506000073], [123.90407671200023, 10.29134307600009], [123.9042351270001, 10.291352430000131], [123.90443472900006, 10.291357110000035], [123.90462888700017, 10.29136422900018], [123.90463367100006, 10.291373644000146], [123.90466237700014, 10.291374990000065], [123.9046695720001, 10.291365278000171], [123.90476542300007, 10.291371024000114], [123.90483463300018, 10.29136867699998], [123.90491308700007, 10.2913616350001], [123.9055550700001, 10.291317031000176], [123.90704437700003, 10.291221716000166], [123.9072776730003, 10.291645883], [123.90774467300002, 10.292519826000103], [123.9079819770003, 10.292388615], [123.90811729500012, 10.29263174700003], [123.90912403900029, 10.292098670000087], [123.90926720300024, 10.292363028000125], [123.9080434220001, 10.293013005000148], [123.90805428800002, 10.293036604000065], [123.90806017100022, 10.293053972000052], [123.90806017100022, 10.293067479000058], [123.90805232600019, 10.293086775000063], [123.90823597900021, 10.293428203000019], [123.90824512300003, 10.293427542000074], [123.90831648500011, 10.293574119000027], [123.90837720600007, 10.293537038000068], [123.90874047700004, 10.294196962000171], [123.90919483000005, 10.295037115000127], [123.91032397300012, 10.294431448000182], [123.91036059600003, 10.294417028000055], [123.91038153400018, 10.294425268000055], [123.91039619000014, 10.29443557000019], [123.91050716300003, 10.29464982200011], [123.91050506800025, 10.294668362999971], [123.91049878600006, 10.294684844000187], [123.90990669900009, 10.294992978000096], [123.90988549700023, 10.295015703000104], [123.90928484500012, 10.295338051000158], [123.90959110400013, 10.29591861400013], [123.90962539100008, 10.295981641000083], [123.91040010200027, 10.29740571800005], [123.91151614400007, 10.296811928000125], [123.91149938000012, 10.29678129600012], [123.91149459000007, 10.296769514], [123.91147782600012, 10.296745951000105], [123.91148501100008, 10.296734169000047], [123.91150177500003, 10.296727100000055], [123.91151375000004, 10.296710605000044], [123.91153291000023, 10.296708248000073], [123.91154248900023, 10.296710605000044], [123.91159278200018, 10.296738881000067], [123.91159996700003, 10.296741238000152], [123.91164786700006, 10.296748122], [123.91166702600015, 10.296759904000112], [123.9117795860002, 10.296979046000104], [123.9117819810001, 10.296986115000095], [123.91177479700002, 10.297019103000139], [123.91054979500018, 10.297676172000081], [123.91066714400017, 10.297892957000158], [123.91067911900018, 10.297890600000073], [123.91070546200001, 10.2979424400001], [123.91069588200003, 10.297954221000055], [123.9108423790002, 10.298198717000048], [123.91089267200005, 10.29817279800011], [123.91111952100005, 10.298585978], [123.91168059400002, 10.299607914000035], [123.91323830200008, 10.300871681000046], [123.91422168200006, 10.301663028000064], [123.91417288200012, 10.301714973], [123.91429223500018, 10.301811210000096], [123.91481525600022, 10.30223293400013], [123.91478877000009, 10.30227173999998], [123.91487137400009, 10.30234489999998], [123.91503537100004, 10.30247356200016], [123.91518790500004, 10.30260756500013], [123.91521331900003, 10.302573729000187], [123.91523337500007, 10.302587615000107], [123.91579903500019, 10.303035334000128], [123.9157934540001, 10.303052203000163], [123.91587948000017, 10.303121728000178], [123.91589363300011, 10.30310760500015], [123.91593873600004, 10.303145712000173], [123.91610983600003, 10.30294223500016], [123.91691947000004, 10.30362766400009], [123.91911043000016, 10.30537232200004], [123.9207235, 10.306670304000136], [123.92073982200009, 10.30668343700006], [123.92096916800006, 10.30641092000019], [123.92158242900007, 10.30693765600006], [123.92241326700014, 10.307596533000094], [123.923658036, 10.308604328000115], [123.9258398830001, 10.310380561000102], [123.92572663400006, 10.310523574000115], [123.92561969200028, 10.310435080000047], [123.92535254200004, 10.310777419000033], [123.92544640500012, 10.310853140000177], [123.92526498300003, 10.311077799000032], [123.92548647600006, 10.311265924000054], [123.92535093700019, 10.31140748700011], [123.92506881700012, 10.311702146000073], [123.92472400300016, 10.312084576000132], [123.92442307500016, 10.312410581000165], [123.92414984900006, 10.31271026799999], [123.92403453300017, 10.312849074000155], [123.92391494600008, 10.312970796000059], [123.92378468200002, 10.313116009000112], [123.92365655400022, 10.313244137000027], [123.92352415400012, 10.313382942999965], [123.92337894200034, 10.313526019999983], [123.92330206400004, 10.313628523000034], [123.92318247800006, 10.313763058000063], [123.92308211000011, 10.313891187000138], [123.92294116900007, 10.314010773000064], [123.92283866600008, 10.314074838000124], [123.92277033100004, 10.314138902000082], [123.92272762100004, 10.314173070000095], [123.92268064100006, 10.314243540000064], [123.92261871200014, 10.314311876000033], [123.92256959600002, 10.314399430000151], [123.92253969900014, 10.314457088000154], [123.92251834500007, 10.314516881000031], [123.92249699000001, 10.314598028999967], [123.92247136400022, 10.314679178], [123.92244360300015, 10.31475178400018], [123.92239662200006, 10.314835067000047], [123.92227917100001, 10.314922622000097], [123.92214250100005, 10.314950383000166], [123.92203359100017, 10.314939706000075], [123.92192895300002, 10.31492048600012], [123.92183285700003, 10.31486923500006], [123.92173676000004, 10.314832932000115], [123.92166842500012, 10.314800899999966], [123.9215274830002, 10.314734700000031], [123.92137586500007, 10.314662094000028], [123.92120502600005, 10.314565997000159], [123.92101924000019, 10.31448698500003], [123.92075230500018, 10.314397295000049], [123.9205430290001, 10.314346043000114], [123.92034442900001, 10.31430546900009], [123.92026541700022, 10.314303334000044], [123.92020562300002, 10.314303334000044], [123.92009671400001, 10.31430974], [123.91984555000022, 10.314369813000098], [123.91958914300005, 10.31443884600003], [123.91946363200009, 10.314452605000042], [123.91937218300006, 10.31445856900018], [123.91907094600003, 10.314492101000099], [123.91886923100014, 10.314547326000138], [123.91875088900031, 10.31464594400012], [123.91866213300011, 10.314803733000133], [123.9187466840001, 10.314833616000044], [123.91882565500009, 10.314936886000055], [123.91889551400016, 10.315037117999964], [123.91898359700019, 10.315155574000187], [123.91905345600003, 10.31521935800015], [123.91911420300016, 10.315234545000067], [123.91922051000017, 10.315258844000027], [123.91932377900014, 10.315313516000117], [123.91952728100011, 10.315474495000046], [123.91970041000013, 10.31563547400009], [123.91998592000004, 10.31586935000007], [123.92012563800006, 10.315987806000123], [123.92027446700024, 10.31603336600017], [123.92043544700005, 10.316051590000086], [123.92050018500026, 10.316065977000108], [123.92065413500006, 10.316100188000178], [123.92087282400007, 10.316212570000062], [123.92094268300013, 10.31637051100006], [123.92087282400007, 10.316485930000113], [123.92076348000012, 10.316531491000092], [123.92063894900002, 10.316577051000138], [123.9203898860003, 10.316665134000061], [123.92022587000008, 10.316801814000144], [123.92016816000012, 10.316968868000117], [123.92019853400006, 10.317072138000128], [123.92021372100021, 10.317251341000144], [123.92022587000008, 10.317354610000052], [123.92017727200016, 10.317509514999983], [123.91997680800023, 10.31776465200005], [123.91987050100022, 10.317904370000065], [123.91968826000016, 10.318116982999982], [123.91955461700002, 10.318256701], [123.91937237700006, 10.318426792000139], [123.91925695800035, 10.31855739800011], [123.91919411500021, 10.318658191], [123.91915065100034, 10.318718377000039], [123.91911420300016, 10.31887328200014], [123.91903826900011, 10.318994776000068], [123.91896841000028, 10.319110195000121], [123.9189380370002, 10.319298510000124], [123.9189319620001, 10.319435190000092], [123.9189319620001, 10.319538460000103], [123.91892892500016, 10.319647804000113], [123.91888640200011, 10.319744999000022], [123.91889247600022, 10.319830045000174], [123.91894714900002, 10.319863456000178], [123.91905953000003, 10.319875605], [123.9192478460003, 10.319902941000123], [123.91931770400004, 10.319987987000104], [123.91932074200008, 10.32007606999997], [123.91929340600018, 10.32018237699998], [123.91932681700018, 10.32026438500003], [123.91943616100002, 10.32037069200004], [123.91948172100001, 10.32050737200018], [123.91947868400007, 10.320601530000147], [123.91949083300005, 10.320698725000113], [123.91958195300015, 10.320780733000106], [123.91966396200007, 10.320838443000127], [123.91982494100023, 10.320923488000119], [123.91996162100008, 10.32100245900017], [123.92009526400011, 10.321017646000087], [123.92021372100021, 10.320962974], [123.92028965400004, 10.320850592000113], [123.920347364, 10.320747322000102], [123.92044152100004, 10.320726061000016], [123.92057516400018, 10.320774658000062], [123.92070577000015, 10.320801995000124], [123.92082726400008, 10.320893115], [123.92083637600012, 10.321011571000042], [123.92075133000003, 10.3211604010001], [123.92066922200013, 10.321287702000063], [123.92060070700006, 10.321429626000054], [123.92056645000002, 10.321542186000158], [123.92056155600028, 10.32171836599997], [123.92052729900001, 10.32185539600016], [123.92049793500007, 10.321948380000038], [123.92046857200023, 10.322075622000057], [123.92043920800029, 10.322232227000143], [123.92044410200003, 10.322383937999973], [123.92044899600023, 10.32262373900005], [123.92038537500002, 10.322848858999976], [123.92038048100017, 10.323054403000128], [123.92040984500011, 10.323255053000025], [123.9205126170001, 10.32336761300013], [123.92062517700015, 10.323411658000111], [123.92069369100011, 10.32350953700012], [123.92070837300014, 10.323592733000112], [123.92065454000021, 10.323671036000064], [123.92056155600028, 10.323759126000084], [123.92048325300016, 10.323881474000075], [123.9205126170001, 10.323979352000038], [123.92057623800008, 10.324038079000161], [123.92070837300014, 10.324072336000086], [123.92081114500024, 10.324091912000085], [123.92087476600011, 10.324184896000133], [123.92087476600011, 10.324326819000078], [123.92084050900019, 10.324414909999973], [123.92076220600006, 10.32447363600005], [123.92058602500026, 10.324483424000164], [123.92043431400009, 10.324576409000144], [123.92038048100017, 10.324733014], [123.92049793500007, 10.324904300000185], [123.92060560100015, 10.325016860000062], [123.9207768880002, 10.32518814700012], [123.92082582700004, 10.325334964000092], [123.92080625100004, 10.325442630000111], [123.92073284300034, 10.325569872000187], [123.92076710000003, 10.325633493], [123.92088455400005, 10.325633493], [123.92103626500023, 10.325633493], [123.921114568, 10.325721583000188], [123.921114568, 10.325829249000037], [123.92107052200015, 10.325897764000104], [123.92093349300023, 10.32597606600001], [123.92086008400008, 10.326088626000114], [123.92082093300019, 10.326201186000162], [123.92084050900019, 10.326323533999982], [123.92094817500004, 10.32636757900002], [123.92104605300017, 10.326362685000106], [123.9211830820002, 10.326480139000068], [123.92124670300007, 10.32659759300003], [123.92124670300007, 10.326700365000022], [123.92117818800011, 10.326768879000156], [123.921075416, 10.326759092000145], [123.92096285600007, 10.326773773000014], [123.92093349300023, 10.326866758000165], [123.92093349300023, 10.32700378700008], [123.92092370500018, 10.327082090000033], [123.92088944800003, 10.327189755000177], [123.9208356150001, 10.327282740000157], [123.92069369100011, 10.32735125400012], [123.92056645000002, 10.327424663000045], [123.92042452700002, 10.327473602000111], [123.92018472500013, 10.327600844000187], [123.91999386300017, 10.327684040000122], [123.91980789400009, 10.327654677000112], [123.91966107700011, 10.327732979000189], [123.91959745600013, 10.327894478000132], [123.91964150100011, 10.32797767500017], [123.91981278800017, 10.328051083000048], [123.9198715150003, 10.32811470400003], [123.91993024200008, 10.328222370000049], [123.91993024200008, 10.328349612000125], [123.91993513600016, 10.328516005000097], [123.91997428700006, 10.328657928000041], [123.92000854400021, 10.328750912000089], [123.92009174100008, 10.328883048000023], [123.92017983100004, 10.329069016000119], [123.92025813400005, 10.329240303000176], [123.92027281500009, 10.329289242000073], [123.9203119670002, 10.329333287000054], [123.92037558700008, 10.329450741000187], [123.92044899600023, 10.329529044000026], [123.92054687400014, 10.329617133999989], [123.92048325300016, 10.329739482000036], [123.92043431400009, 10.329847148000056], [123.92048814700001, 10.329935238000019], [123.92056155600028, 10.329969495000114], [123.92067411600021, 10.329969495000114], [123.9208160390001, 10.329969495000114], [123.92088455400005, 10.33001843400018], [123.92096285600007, 10.330135888000143], [123.92103137100003, 10.330243554000162], [123.921075416, 10.33035611400004], [123.92118797600006, 10.330512719000126], [123.92120755200006, 10.330698688000155], [123.92119823100029, 10.330876187000172], [123.92127792600002, 10.330972162000023], [123.92136362800022, 10.331075248000047], [123.92140208100011, 10.331247528000063], [123.92141263300027, 10.331255587000157], [123.92157298500001, 10.331378043000143], [123.92160294200016, 10.33161318100008], [123.92170100800024, 10.331759973000146], [123.92154769500007, 10.331923370000027], [123.9216456580001, 10.332082939000031], [123.92183376400021, 10.33231926700006], [123.92186582700015, 10.332461253000076], [123.92175891100032, 10.33259271300011], [123.9217645970001, 10.332756261000156], [123.92180822600005, 10.332951889000128], [123.92199484700018, 10.33302524800007], [123.92207505200008, 10.33313055900004], [123.92213074700021, 10.333313827999973], [123.9201366420001, 10.33406794300015], [123.91951160400015, 10.333022803000176], [123.9193179240001, 10.333426302000078], [123.91914845500003, 10.333684541000025], [123.9188498650002, 10.334096111000122], [123.91872074600008, 10.334201020000023], [123.9188498650002, 10.334418910000124], [123.91886600500004, 10.334733639000149], [123.91874495600007, 10.334935389000123], [123.9185432060001, 10.335153279000053], [123.91838180600007, 10.335282398000174], [123.91790567700002, 10.335387308000122], [123.9173246380002, 10.335556778000125], [123.91715516900013, 10.33587150700015], [123.91708253900015, 10.336113607000073], [123.91723586800015, 10.336420266000175], [123.91733270800012, 10.336710786000026], [123.91723099100011, 10.336796410000034], [123.91724448600007, 10.336940922000053], [123.91729325600022, 10.337092649000112], [123.9172282300002, 10.337222702000133], [123.91719029800004, 10.337369010000145], [123.91712527200002, 10.337580345000106], [123.91700605700021, 10.337840450000044], [123.9169301930001, 10.337992178000036], [123.91687058600007, 10.338122230000124], [123.91653461800001, 10.3382143500001], [123.91639372800023, 10.338241444], [123.91633953900009, 10.33818183700015], [123.91613362300029, 10.338241444], [123.91592228900004, 10.338295632999973], [123.91581933000009, 10.338398591000157], [123.91556464500013, 10.338566575000186], [123.91539666100005, 10.338637020000078], [123.91523409500007, 10.338664113999982], [123.915049855, 10.338739978000092], [123.91492522100032, 10.338821261000135], [123.91468575300007, 10.338938101000053], [123.91464114200016, 10.338984726000092], [123.91452435400015, 10.339107571], [123.91429032400015, 10.339244760999975], [123.91387875500004, 10.339430371000105], [123.91351560500004, 10.339527210000028], [123.91299912600005, 10.339696679999975], [123.9129345670001, 10.339720890000024], [123.91306640400012, 10.340141699000128], [123.91327825300016, 10.341046425000059], [123.91335892400014, 10.341398271], [123.9134591090002, 10.341721597000117], [123.91370046600014, 10.342336373000023], [123.91383603100007, 10.343432831000143], [123.91403242800004, 10.344236356000067], [123.91419055100027, 10.34469957400006], [123.91435121400002, 10.345244430000037], [123.91442131500003, 10.345702457000186], [123.91462395800022, 10.346194590000096], [123.914765224, 10.34632270800006], [123.91503801500005, 10.347200753000152], [123.91530452400002, 10.348167595], [123.91536119600005, 10.348712866000085], [123.91538903600008, 10.349082971000087], [123.91543119900007, 10.349613574000045], [123.91545572600012, 10.349775454999985], [123.91549497000017, 10.350055068000131], [123.91547534800009, 10.350275815000032], [123.915771747, 10.351065596000069], [123.91587269300021, 10.35126181700008], [123.91609834500002, 10.351649351000162], [123.9179574110002, 10.355398599000068], [123.91863861200034, 10.35687421800003], [123.9188728700002, 10.35737926400003], [123.91907972300021, 10.357692589000123], [123.9190989770002, 10.35784019800019], [123.9191182300001, 10.357974973000069], [123.91906688800009, 10.358135418000074], [123.92037133100007, 10.35956417300008], [123.9207545380001, 10.359892637000087], [123.9209917620002, 10.360011248000035], [123.92136907100007, 10.360257215000047], [123.92141146500035, 10.360275844000114], [123.92221437600006, 10.360969266999973], [123.92378410100002, 10.36144897600019], [123.92577062600003, 10.36193750600006], [123.92563260500003, 10.362076770000044], [123.92551634700021, 10.362245345000076], [123.92534777300011, 10.362582493000048], [123.92524314100012, 10.362820822000174], [123.92504550200022, 10.36326260300001], [123.9249815600001, 10.363582313], [123.92499899800009, 10.36383808100004], [123.92510944400021, 10.364035720000118], [123.92521988900012, 10.364349617000073], [123.9251733860001, 10.36464026200008], [123.92501062400004, 10.364942533000146], [123.92501643700007, 10.365157611000143], [123.9251908240002, 10.36544244300012], [123.92508619200021, 10.365674960000035], [123.92503387600016, 10.365814469000156], [123.92503387600016, 10.36599467000002], [123.92524314100012, 10.366134179000142], [123.92531870800008, 10.36635507], [123.92512106900017, 10.366564334000088], [123.9248943660001, 10.366605025000183], [123.92471416600017, 10.366564334000088], [123.9245049010002, 10.366407386000105], [123.92432470100016, 10.366512018000037], [123.92418519100022, 10.366657341000064], [123.92398174000016, 10.366936360000182], [123.92385966900008, 10.367197941000029], [123.9238422300001, 10.367389767000077], [123.92374341100003, 10.367680413000187], [123.92430037800023, 10.368219527000178], [123.92496742900005, 10.368885871999964], [123.92583053500005, 10.369762723000179], [123.9256699230001, 10.369871904000036], [123.92679833000011, 10.370802626000113], [123.92652319800004, 10.371135129000038], [123.9265554540001, 10.372150338999973], [123.92687907200002, 10.373837960000117], [123.92663476600012, 10.373754179000173], [123.92652364600008, 10.374018911000064], [123.92637309200006, 10.374229747000072], [123.92625543800011, 10.374552715000164], [123.92620530500017, 10.374616184], [123.92613305900022, 10.374639987000137], [123.92606307000005, 10.374637515000074], [123.92554316400003, 10.37524315100012], [123.92538604700007, 10.377359618000185], [123.92504810900016, 10.377461999], [123.92475339400005, 10.377610659000084], [123.92438468700016, 10.377892615000121], [123.92420527800016, 10.378068634000044], [123.924175106, 10.379677665000031], [123.92462193100005, 10.380851431000167], [123.92441481600008, 10.381345835000047], [123.92425446900006, 10.381760065000037], [123.92416093300017, 10.382047353000132], [123.9240339920002, 10.382274512000038], [123.92396049900003, 10.382481627], [123.92393663300004, 10.382549186], [123.9239208030001, 10.382661403000156], [123.92391141300004, 10.383018805000063], [123.92390269600003, 10.383052741000029], [123.92388485700019, 10.38308453899998], [123.92383513800007, 10.38312124700019], [123.9237816870002, 10.38314437200006], [123.92361080800003, 10.383214268000188], [123.92346105100012, 10.383278947000122], [123.92318373500007, 10.383342048000088], [123.92341180100016, 10.38403265200003], [123.92350048700018, 10.384148904000028], [123.92356976000019, 10.384502753000106], [123.92358577100015, 10.384576387000152], [123.92384635500002, 10.385552743000119], [123.92413104600007, 10.38664739100011], [123.92414590700014, 10.389812731000177], [123.92349424600013, 10.39824029000016], [123.92387028500002, 10.398283221000042], [123.92390917600017, 10.39831459300018], [123.92395534200011, 10.398447238000017], [123.92394079200028, 10.398709224000072], [123.92387811900016, 10.398913970000137], [123.92388819200005, 10.399136328000054], [123.92405494700006, 10.399652594000145], [123.92408146000002, 10.399864592000085], [123.92411202500011, 10.40034168200009], [123.92414420100033, 10.400591008000163], [123.9241579100003, 10.400812814], [123.92406725800026, 10.40108360500011], [123.92388707200007, 10.401290550000112], [123.92369094000003, 10.401467009000044], [123.92354684600002, 10.401690131000066], [123.92345761700005, 10.401860769000109], [123.92171916300003, 10.405156884000064], [123.92247203400007, 10.407533594000085], [123.92341573400006, 10.410396202000186], [123.92361833100017, 10.415258095000183], [123.92386672600003, 10.41883695000007], [123.92392335100021, 10.419652786000086], [123.92432039100004, 10.428897136000046], [123.92303935500001, 10.434836110000106], [123.92306088900023, 10.43500013], [123.92330781400017, 10.437007509000125], [123.9250210990001, 10.453210232], [123.92498414200008, 10.454438727000138], [123.92472404500018, 10.464474200000154], [123.92466289200001, 10.466891], [123.92498325500014, 10.46983726700006], [123.92521606100001, 10.471264041000154], [123.92520801300009, 10.471628656], [123.92511225800001, 10.47204359400007], [123.92509629900007, 10.47255428700015], [123.92495266700007, 10.473144776000083], [123.92481701400015, 10.473424061000173], [123.92436217800002, 10.473599612000044], [123.9238834030001, 10.473599612000044], [123.92358815900002, 10.47348789800003], [123.9227322720003, 10.472697076000145], [123.92148927400012, 10.472655085000156], [123.91998627900023, 10.473296046000144], [123.91971928300018, 10.47415098800019], [123.9196882870001, 10.474937933000035], [123.91968029300028, 10.476280839000083], [123.91912462900018, 10.477573464000045], [123.91855930700012, 10.479030651000073], [123.91816284000004, 10.479556023000043], [123.91372234200003, 10.485117247000062], [123.91168239300009, 10.485650218000046], [123.90159947400002, 10.487374688000102], [123.89639813500003, 10.490289982999968], [123.89533244300014, 10.490852926000116], [123.89187304400002, 10.4919254510001], [123.8902792250002, 10.492567503000146]], [[123.90649414100017, 10.277709960999971], [123.90649414100017, 10.278320313000052], [123.90667724600007, 10.278930665000075], [123.90667724600007, 10.279724121000186], [123.90631103500004, 10.280517579000104], [123.90551757800006, 10.280883790000132], [123.90490722700008, 10.280700684000067], [123.90472412100007, 10.280517579000104], [123.90429687500023, 10.27990722700008], [123.90429687500023, 10.279113770000038], [123.90429687500023, 10.277526856], [123.90472412100007, 10.276672363000102], [123.90527343700023, 10.276306152000075], [123.90588378900009, 10.276306152000075], [123.90612793000014, 10.27648925800014], [123.90649414100017, 10.277709960999971]], [[123.90442024900017, 10.272183492000067], [123.90447998000002, 10.272521972000163], [123.90447998000002, 10.274475098000096], [123.90411376900022, 10.274719238000046], [123.90368652300003, 10.274719238000046], [123.90332031300011, 10.273498535000044], [123.90332031300011, 10.27209472700008], [123.90368652300003, 10.271911621000186], [123.90376064100008, 10.271859738999979], [123.90429687500023, 10.271484375], [123.90442024900017, 10.272183492000067]]]}}]}